{
  "type": "FeatureCollection",
  "features": [
    {
      "type": "Feature",
      "properties": {
        "name": "werck it!- video degrader（压烂它！） Supported Territories"
      },
      "geometry": {
        "type": "MultiPolygon",
        "coordinates": [
          [
            [
              [-125.0, 50.0],
              [-125.0, 24.0],
              [-66.0, 24.0],
              [-66.0, 50.0],
              [-125.0, 50.0]
            ]
          ],
          [
            [
              [73.0, 54.0],
              [135.0, 54.0],
              [135.0, 18.0],
              [73.0, 18.0],
              [73.0, 54.0]
            ]
          ],
          [
            [
              [-10.0, 59.0],
              [2.0, 59.0],
              [2.0, 49.0],
              [-10.0, 49.0],
              [-10.0, 59.0]
            ]
          ],
          [
            [
              [128.0, 46.0],
              [146.0, 46.0],
              [146.0, 30.0],
              [128.0, 30.0],
              [128.0, 46.0]
            ]
          ],
          [
            [
              [119.0, 26.0],
              [122.0, 26.0],
              [122.0, 21.0],
              [119.0, 21.0],
              [119.0, 26.0]
            ]
          ]
        ]
      }
    }
  ]
}