{
  "type": "FeatureCollection",
  "features": [
    {
      "type": "Feature",
      "properties": {
        "name": "Wreck It! Supported Territories"
      },
      "geometry": {
        "type": "MultiPolygon",
        "coordinates": [
          [[[-125.0, 49.0], [-125.0, 25.0], [-66.0, 25.0], [-66.0, 49.0], [-125.0, 49.0]]],
          [[[73.0, 53.0], [135.0, 53.0], [135.0, 18.0], [73.0, 18.0], [73.0, 53.0]]],
          [[[-8.0, 60.0], [-8.0, 50.0], [2.0, 50.0], [2.0, 60.0], [-8.0, 60.0]]],
          [[[128.0, 46.0], [146.0, 46.0], [146.0, 31.0], [128.0, 31.0], [128.0, 46.0]]],
          [[[120.0, 26.0], [122.0, 26.0], [122.0, 21.0], [120.0, 21.0], [120.0, 26.0]]]
        ]
      }
    }
  ]
}
